BIRKELAND               
1 55015U 23001G   26169.64089014  .00006996  00000+0  17674-3 0  9995
2 55015  97.3342 237.6145 0008352 101.2115 259.0070 15.40096634192578
ION SCV-008             
1 55051U 23001AU  26169.54717725  .00004976  00000+0  18120-3 0  9994
2 55051  97.5713 265.8878 0014885  13.8776 346.2869 15.28589007191545
ION SCV-007             
1 55060U 23001BD  26169.41692032  .00000330  00000+0  53334-4 0  9990
2 55060  97.9007 232.4075 0011701 338.0476  22.0232 14.77554436186433
HUYGENS                 
1 55093U 23001CN  26169.64097558  .00006896  00000+0  17409-3 0  9998
2 55093  97.3247 236.8425 0011017  82.0177 278.2319 15.40097144192594
SHARJAHSAT-1            
1 55104U 23001CZ  26169.59855185  .00017040  00000+0  31491-3 0  9993
2 55104  97.3169 238.3840 0006985  99.3295 260.8746 15.49109233192715
HORUS 1                 
1 55690U 23025A   26169.59808294  .00004356  00000+0  18670-3 0  9998
2 55690  97.3460 244.1644 0001453 149.1707 210.9616 15.23274222184269
HORUS 2                 
1 55844U 23032A   26169.63355487  .00004371  00000+0  18642-3 0  9999
2 55844  97.3532 245.0055 0002306 104.4321 255.7172 15.23438717181701
GLOBAL-19               
1 55982U 23041B   26169.52723192  .00009146  00000+0  24534-3 0  9994
2 55982  41.9998 194.0717 0008542  11.8448 348.2591 15.38046872182136
BRO-9                   
1 56185U 23054H   26169.56754535  .01005040  59521-3  11215-2 0  9990
2 56185  97.2911  88.2699 0008911 173.5954 186.5445 16.09526550179314
ION SCV-010             
1 56192U 23054Q   26169.27455838  .00003456  00000+0  13618-3 0  9992
2 56192  97.3777  58.7620 0012294 193.1538 166.9382 15.26204057176361
TELEOS-2                
1 56310U 23057C   26168.75595669  .00000688  00000+0  45760-7 0  9997
2 56310   9.9867 200.0219 0000181 229.2865 130.7333 14.96411162172885
SNIPE 4                 
1 56744U 23072B   26169.57637954  .00016035  00000+0  37293-3 0  9991
2 56744  97.5246  15.6252 0004259 332.4771  27.6250 15.42395674170320
SNIPE 2                 
1 56745U 23072C   26169.61516677  .00021462  00000+0  42766-3 0  9996
2 56745  97.5240  18.7189 0003970   9.3294 350.8028 15.46906644170465
2023-072G               
1 56749U 23072G   26169.61220001  .00024609  00000+0  43027-3 0  9990
2 56749  97.4899  17.5208 0002653   3.8497 356.2774 15.50640236170687
GEISAT PRECURSOR        
1 56934U 23084C   26169.65334512  .00005736  00000+0  17323-3 0  9996
2 56934  97.6231 310.6542 0004809 352.0579   8.0586 15.34666774167752
BLACKJACK ACES-3        
1 56950U 23084U   26169.61987597  .00003890  00000+0  19212-3 0  9995
2 56950  97.6217 304.8211 0002465  33.9502 326.1890 15.18481598167381
BLACKJACK ACES-2        
1 56955U 23084Z   26169.62595295  .00002349  00000+0  11735-3 0  9991
2 56955  97.6214 304.9119 0000649  84.2678 275.8630 15.18488967167396
BLACKJACK ACES-1        
1 56956U 23084AA  26169.41608965  .00005006  00000+0  24529-3 0  9996
2 56956  97.6204 304.4745 0001273 104.4021 255.7354 15.18617319117083
ION SCV-011             
1 56957U 23084AB  26169.57164368  .00004178  00000+0  15206-3 0  9999
2 56957  98.1379 356.9786 0007897  41.2723 318.9110 15.28857247166022
GHOST-3                 
1 56958U 23084AC  26169.39177332  .00013695  00000+0  26449-3 0  9990
2 56958  97.6220 318.0278 0005475 288.7080  71.3575 15.47911875168207
TOMORROW-R2             
1 56962U 23084AG  26169.53698041  .00577195  17700-3  60582-3 0  9991
2 56962  97.6064 333.9828 0008935 242.8131 117.2241 16.10358845169278
AFR-1                   
1 56964U 23084AJ  26169.60704948  .00003584  00000+0  13170-3 0  9993
2 56964  97.6280 306.3318 0009821 341.6582  18.4301 15.28564927167445
METEOR-M2 3             
1 57166U 23091A   26169.64424212  .00000028  00000+0  30909-4 0  9993
2 57166  98.6090 224.5928 0004423 151.7298 208.4122 14.24047010154728
UMKA 1 (RS40S)          
1 57172U 23091G   26169.60722280  .00004770  00000+0  21883-3 0  9990
2 57172  97.5047 228.2990 0014272 113.2428 247.0311 15.20832074164220
2023-091H               
1 57173U 23091H   26169.62307331  .00009015  00000+0  32553-3 0  9992
2 57173  97.5044 232.8268 0011264 108.8612 251.3850 15.28662812164528
2023-091J               
1 57174U 23091J   26169.57639273  .00002872  00000+0  16175-3 0  9996
2 57174  97.5052 222.6532 0014419 138.5903 221.6424 15.13934547163849
CUBEBEL 2 (EU11S)       
1 57175U 23091K   26169.62345798  .00010104  00000+0  35874-3 0  9993
2 57175  97.5046 232.8533 0011296 110.4112 249.8342 15.29181600164526
SITRO-AIS 5 (KATYS)     
1 57176U 23091L   26169.57474430  .00009515  00000+0  33472-3 0  9990
2 57176  97.5056 233.4874 0012752  99.3309 260.9374 15.29483416164556
ZORKIY-2M 1             
1 57177U 23091M   26169.59353428  .00005522  00000+0  25211-3 0  9992
2 57177  97.5086 228.5545 0014812 110.7968 249.4856 15.20918511164218
CUBESX-HSE 3 (RS42S)    
1 57178U 23091N   26169.61152213  .00010170  00000+0  33879-3 0  9999
2 57178  97.5087 235.2167 0011991  90.5232 269.7383 15.31243946164641
