OBJECT_NAME,OBJECT_ID,EPOCH,MEAN_MOTION,ECCENTRICITY,INCLINATION,RA_OF_ASC_NODE,ARG_OF_PERICENTER,MEAN_ANOMALY,EPHEMERIS_TYPE,CLASSIFICATION_TYPE,NORAD_CAT_ID,ELEMENT_SET_NO,REV_AT_EPOCH,BSTAR,MEAN_MOTION_DOT,MEAN_MOTION_DDOT
BIRKELAND,2023-001G,2026-06-18T15:22:52.908096,15.40096634,.00083523,97.3342,237.6145,101.2115,259.0070,0,U,55015,999,19257,.17673794E-3,.6996E-4,0
ION SCV-008,2023-001AU,2026-06-18T13:07:56.114400,15.28589007,.00148857,97.5713,265.8878,13.8776,346.2869,0,U,55051,999,19154,.18120004E-3,.4976E-4,0
ION SCV-007,2023-001BD,2026-06-18T10:00:21.915648,14.77554436,.00117018,97.9007,232.4075,338.0476,22.0232,0,U,55060,999,18643,.53334223E-4,.33E-5,0
HUYGENS,2023-001CN,2026-06-18T15:23:00.290112,15.40097144,.00110178,97.3247,236.8425,82.0177,278.2319,0,U,55093,999,19259,.17408534E-3,.6896E-4,0
SHARJAHSAT-1,2023-001CZ,2026-06-18T14:21:54.879840,15.49109233,.00069851,97.3169,238.3840,99.3295,260.8746,0,U,55104,999,19271,.31490602E-3,.1704E-3,0
HORUS 1,2023-025A,2026-06-18T14:21:14.366016,15.23274222,.00014531,97.3460,244.1644,149.1707,210.9616,0,U,55690,999,18426,.18669591E-3,.4356E-4,0
HORUS 2,2023-032A,2026-06-18T15:12:19.140768,15.23438717,.00023061,97.3532,245.0055,104.4321,255.7172,0,U,55844,999,18170,.18642397E-3,.4371E-4,0
GLOBAL-19,2023-041B,2026-06-18T12:39:12.837888,15.38046872,.00085429,41.9998,194.0717,11.8448,348.2591,0,U,55982,999,18213,.24533915E-3,.9146E-4,0
BRO-9,2023-054H,2026-06-18T13:37:15.918240,16.09526550,.00089113,97.2911,88.2699,173.5954,186.5445,0,U,56185,999,17931,.11215018E-2,.100504E-1,.59521015E-3
ION SCV-010,2023-054Q,2026-06-18T06:35:21.844032,15.26204057,.00122949,97.3777,58.7620,193.1538,166.9382,0,U,56192,999,17636,.13618387E-3,.3456E-4,0
TELEOS-2,2023-057C,2026-06-17T18:08:34.658016,14.96411162,.00001818,9.9867,200.0219,229.2865,130.7333,0,U,56310,999,17288,.4576E-7,.688E-5,0
SNIPE 4,2023-072B,2026-06-18T13:49:59.192256,15.42395674,.00042594,97.5246,15.6252,332.4771,27.6250,0,U,56744,999,17032,.3729274E-3,.16035E-3,0
SNIPE 2,2023-072C,2026-06-18T14:45:50.408928,15.46906644,.00039708,97.5240,18.7189,9.3294,350.8028,0,U,56745,999,17046,.42766409E-3,.21462E-3,0
2023-072G,2023-072G,2026-06-18T14:41:34.080864,15.50640236,.00026531,97.4899,17.5208,3.8497,356.2774,0,U,56749,999,17068,.43026533E-3,.24609E-3,0
GEISAT PRECURSOR,2023-084C,2026-06-18T15:40:49.018368,15.34666774,.0004809,97.6231,310.6542,352.0579,8.0586,0,U,56934,999,16775,.17322921E-3,.5736E-4,0
BLACKJACK ACES-3,2023-084U,2026-06-18T14:52:37.283808,15.18481598,.00024655,97.6217,304.8211,33.9502,326.1890,0,U,56950,999,16738,.19212233E-3,.389E-4,0
BLACKJACK ACES-2,2023-084Z,2026-06-18T15:01:22.334880,15.18488967,.00006499,97.6214,304.9119,84.2678,275.8630,0,U,56955,999,16739,.11735052E-3,.2349E-4,0
BLACKJACK ACES-1,2023-084AA,2026-06-18T09:59:10.145760,15.18617319,.00012736,97.6204,304.4745,104.4021,255.7354,0,U,56956,999,11708,.24528749E-3,.5006E-4,0
ION SCV-011,2023-084AB,2026-06-18T13:43:10.013952,15.28857247,.00078979,98.1379,356.9786,41.2723,318.9110,0,U,56957,999,16602,.15206212E-3,.4178E-4,0
GHOST-3,2023-084AC,2026-06-18T09:24:09.214848,15.47911875,.00054757,97.6220,318.0278,288.7080,71.3575,0,U,56958,999,16820,.26448785E-3,.13695E-3,0
TOMORROW-R2,2023-084AG,2026-06-18T12:53:15.107424,16.10358845,.00089355,97.6064,333.9828,242.8131,117.2241,0,U,56962,999,16927,.60582031E-3,.577195E-2,.17699669E-3
AFR-1,2023-084AJ,2026-06-18T14:34:09.075072,15.28564927,.00098214,97.6280,306.3318,341.6582,18.4301,0,U,56964,999,16744,.13169856E-3,.3584E-4,0
METEOR-M2 3,2023-091A,2026-06-18T15:27:42.519168,14.24047010,.00044232,98.6090,224.5928,151.7298,208.4122,0,U,57166,999,15472,.30908865E-4,.28E-6,0
UMKA 1 (RS40S),2023-091G,2026-06-18T14:34:24.049920,15.20832074,.0014272,97.5047,228.2990,113.2428,247.0311,0,U,57172,999,16422,.21882514E-3,.477E-4,0
2023-091H,2023-091H,2026-06-18T14:57:13.533984,15.28662812,.00112642,97.5044,232.8268,108.8612,251.3850,0,U,57173,999,16452,.32553342E-3,.9015E-4,0
2023-091J,2023-091J,2026-06-18T13:50:00.331872,15.13934547,.00144195,97.5052,222.6532,138.5903,221.6424,0,U,57174,999,16384,.16174633E-3,.2872E-4,0
CUBEBEL 2 (EU11S),2023-091K,2026-06-18T14:57:46.769472,15.29181600,.00112969,97.5046,232.8533,110.4112,249.8342,0,U,57175,999,16452,.35873573E-3,.10104E-3,0
SITRO-AIS 5 (KATYS),2023-091L,2026-06-18T13:47:37.907520,15.29483416,.00127526,97.5056,233.4874,99.3309,260.9374,0,U,57176,999,16455,.33471916E-3,.9515E-4,0
ZORKIY-2M 1,2023-091M,2026-06-18T14:14:41.361792,15.20918511,.00148124,97.5086,228.5545,110.7968,249.4856,0,U,57177,999,16421,.25210995E-3,.5522E-4,0
CUBESX-HSE 3 (RS42S),2023-091N,2026-06-18T14:40:35.512032,15.31243946,.00119915,97.5087,235.2167,90.5232,269.7383,0,U,57178,999,16464,.33878944E-3,.1017E-3,0
